OBJECT_NAME,OBJECT_ID,EPOCH,MEAN_MOTION,ECCENTRICITY,INCLINATION,RA_OF_ASC_NODE,ARG_OF_PERICENTER,MEAN_ANOMALY,EPHEMERIS_TYPE,CLASSIFICATION_TYPE,NORAD_CAT_ID,ELEMENT_SET_NO,REV_AT_EPOCH,BSTAR,MEAN_MOTION_DOT,MEAN_MOTION_DDOT
WGS F5 (USA 243),2013-024A,2026-06-06T02:57:23.018112,1.00272110,.00002675,0.0192,311.9783,117.8929,176.5235,0,U,39168,999,4706,0,-.271E-5,0
SES-6,2013-026A,2026-06-06T03:00:45.194976,1.00271286,.00027563,0.0255,313.4635,138.0716,167.7134,0,U,39172,999,4761,0,-.248E-5,0
IRNSS-1A,2013-034A,2026-05-22T20:37:38.469792,1.00280263,.00166187,35.6649,64.2334,185.3754,355.4646,0,U,39199,999,4711,0,.59E-6,0
MUOS-2,2013-036A,2026-06-05T22:16:38.904384,1.00271256,.00505895,4.9738,45.5185,178.0911,176.8435,0,U,39206,999,4707,0,-.1E-7,0
ALPHASAT,2013-038A,2026-06-06T03:38:38.460192,1.00270552,.00020182,2.9979,1.4565,73.8066,258.8329,0,U,39215,999,4390,0,.146E-5,0
INSAT-3D,2013-038B,2026-06-05T22:41:17.698272,1.00268431,.00008495,1.8964,82.6835,350.1240,291.3787,0,U,39216,999,4696,0,-.326E-5,0
WGS F6 (USA 244),2013-041A,2026-06-05T23:08:26.683008,1.00271131,.00002171,0.0177,350.4460,69.6387,46.2520,0,U,39222,999,4595,0,.102E-5,0
ES'HAIL 1,2013-044A,2026-06-06T03:38:38.460192,1.00270188,.00024818,0.0478,356.7112,74.0846,263.9198,0,U,39233,999,4651,0,.156E-5,0
GSAT-7,2013-044B,2026-06-06T02:06:38.887776,1.00271001,.00029343,0.0573,102.0307,190.4019,67.7439,0,U,39234,999,4514,0,-.64E-6,0
AMOS-4,2013-045A,2026-06-06T03:30:54.584640,1.00273002,.0002637,0.0200,85.7454,325.8315,320.7286,0,U,39237,999,4684,0,.2E-6,0
AEHF-3 (USA 246),2013-050A,2026-06-05T21:28:36.337728,1.00269774,.00878287,5.2669,67.2844,188.0783,196.8431,0,U,39256,999,4554,0,.42E-6,0
ASTRA 2E,2013-056A,2026-06-05T13:39:05.827680,1.00273265,.00026112,0.0573,339.5997,95.9640,51.7100,0,U,39285,999,4630,0,.163E-5,0
FM-6,2013-058A,2026-06-05T16:23:08.864736,1.00256096,.00024468,0.0108,36.5239,112.0036,235.0340,0,U,39360,999,4595,0,-.1E-7,0
RADUGA-1M 3,2013-062A,2026-06-04T17:56:00.523392,1.00274022,.00015788,5.9262,72.5137,274.5230,210.1480,0,U,39375,999,4598,0,.164E-5,0
SES-8,2013-071A,2026-06-06T01:56:48.676416,1.00272425,.00029705,0.0128,296.3002,143.1771,299.2405,0,U,39460,999,4431,0,-.257E-5,0
INMARSAT 5-F1,2013-073A,2026-06-05T18:49:07.428864,1.00269292,.00006257,0.0178,359.3793,343.4808,256.2731,0,U,39476,999,4546,0,.41E-6,0
TKSAT-1 (TUPAC KATARI),2013-075A,2026-06-06T02:47:31.463232,1.00273134,.00027297,0.0260,198.6646,227.5550,143.0120,0,U,39481,999,4549,0,-.182E-5,0
EXPRESS-AM5,2013-077A,2026-06-05T22:44:17.411136,1.00269992,.00006637,0.0150,282.3642,75.1222,17.9923,0,U,39487,999,4624,0,-.267E-5,0
GSAT-14,2014-001A,2026-06-06T02:06:38.887776,1.00269376,.0000889,0.0110,331.8526,331.1725,57.1478,0,U,39498,999,4526,0,0,0
THAICOM 6,2014-002A,2026-06-06T03:34:46.714656,1.00270183,.00046254,0.0779,107.6978,353.9406,285.1400,0,U,39500,999,4534,0,-.108E-5,0
TDRS 12,2014-004A,2026-06-06T03:00:37.706688,1.00271346,.00026052,3.9660,18.8995,197.7634,42.1593,0,U,39504,999,4416,0,-.258E-5,0
ABS-2,2014-006A,2026-06-06T02:06:38.887776,1.00271846,.00042866,0.0206,55.4709,7.5473,298.0884,0,U,39508,999,4516,0,-.73E-6,0
ATHENA-FIDUS,2014-006B,2026-06-06T03:30:38.755296,1.00274192,.00014698,0.0367,96.1927,340.4168,268.4426,0,U,39509,999,4497,0,.167E-5,0
TURKSAT 4A,2014-007A,2026-06-06T03:30:38.755296,1.00269299,.00014133,0.0592,290.9753,42.1572,16.1113,0,U,39522,999,4485,0,.159E-5,0
EXPRESS-AT1,2014-010A,2026-06-06T05:12:25.635168,1.00301645,.00038389,0.2290,85.8448,32.5336,275.4837,0,U,39612,999,4470,0,.48E-6,0
EXPRESS-AT2,2014-010B,2026-06-06T03:28:17.336640,1.00273334,.00003566,0.0150,297.6932,87.3175,337.6270,0,U,39613,999,4438,0,.91E-6,0
AMAZONAS 4A,2014-011A,2026-06-06T04:20:38.904576,1.00274529,.00038691,0.0677,208.1189,254.5432,143.0844,0,U,39616,999,4460,0,-.24E-5,0
ASTRA 5B,2014-011B,2026-06-05T13:37:43.459968,1.00273378,.00022324,0.0610,313.5997,114.6619,53.6974,0,U,39617,999,4455,0,.15E-5,0
IRNSS-1B,2014-017A,2026-05-19T20:39:38.653920,1.00280229,.00242269,28.9733,240.8911,185.2284,176.5740,0,U,39635,999,4451,0,.103E-5,0
LUCH-5V,2014-023A,2026-06-06T04:58:38.898624,1.00268523,.00028007,5.1060,69.8596,28.7060,325.4398,0,U,39727,999,4424,0,-.255E-5,0
KAZSAT-3,2014-023B,2026-06-05T05:14:20.866848,1.00269766,.00000738,0.0316,57.7798,20.2373,312.7190,0,U,39728,999,4233,0,.73E-6,0
EUTELSAT 3B,2014-030A,2026-06-06T03:13:11.284032,1.00272354,.0004129,0.0608,350.3099,86.6112,229.0324,0,U,39773,999,4395,0,.33E-6,0
ASIASAT 8 (AMOS-7),2014-046A,2026-06-06T00:17:02.456736,1.00272879,.00016455,0.0172,289.3300,141.8616,292.8318,0,U,40107,999,10203,0,-.32E-5,0
ASIASAT 6,2014-052A,2026-06-05T17:30:31.802400,1.00269615,.000102,0.0184,310.8041,141.3753,184.5165,0,U,40141,999,4296,0,-.349E-5,0
OPTUS 10,2014-054A,2026-06-05T16:54:52.970400,1.00270710,.0002088,0.0779,305.7094,129.1218,229.0227,0,U,40146,999,4291,0,-.135E-5,0
MEASAT-3B,2014-054B,2026-06-06T03:38:23.868096,1.00273352,.00031909,0.0415,39.1863,25.5001,335.9703,0,U,40147,999,4279,0,-.229E-5,0
HIMAWARI-8,2014-060A,2026-06-05T22:44:24.899424,1.00271882,.00009295,0.0149,38.8205,55.0701,282.2629,0,U,40267,999,4264,0,-.263E-5,0
IRNSS-1C,2014-061A,2026-06-05T20:52:04.050048,1.00271117,.0022585,6.4898,89.1421,1.1724,200.0255,0,U,40269,999,4257,0,-.149E-5,0
INTELSAT 30 (IS-30),2014-062A,2026-06-05T23:19:55.583040,1.00269128,.00010255,0.0248,46.8492,354.0943,108.3631,0,U,40271,999,668,0,-.138E-5,0
ARSAT 1,2014-062B,2026-06-05T21:43:52.759200,1.00271135,.00019442,0.0392,60.8752,12.1139,75.5216,0,U,40272,999,4251,0,-.247E-5,0
EUTELSAT 53A,2014-064A,2026-06-05T17:40:03.240768,1.00272314,.00007287,0.0169,298.7452,228.8058,44.6285,0,U,40277,999,4145,0,.11E-5,0
GSAT-16,2014-078A,2026-06-06T03:28:02.360928,1.00271562,.00078797,0.0620,93.8724,350.5289,277.2488,0,U,40332,999,4199,0,.98E-6,0
DIRECTV 14,2014-078B,2026-06-06T01:01:20.385120,1.00270661,.00004215,0.0096,332.0636,197.3196,1.1861,0,U,40333,999,4193,0,-.112E-5,0
YAMAL 401,2014-082A,2026-06-06T07:03:15.259104,1.00270831,.000058,0.0130,316.7444,286.7117,207.0212,0,U,40345,999,4181,0,0,0
ASTRA 2G,2014-089A,2026-06-05T15:21:44.290080,1.00270072,.00051476,0.0484,6.5430,52.5308,93.6300,0,U,40364,999,4185,0,.162E-5,0
FENGYUN 2G,2014-090A,2026-06-05T15:42:09.840384,1.00278137,.00035535,5.6094,72.9555,153.6086,2.6058,0,U,40367,999,4188,0,-.291E-5,0
MUOS-3,2015-002A,2026-06-05T21:59:59.659872,1.00272196,.00515255,4.5001,43.4768,178.6546,346.7703,0,U,40374,999,4147,0,-.116E-5,0
INMARSAT 5-F2,2015-005A,2026-06-05T21:48:37.304640,1.00271995,.00005406,0.0176,356.9078,198.0619,331.5131,0,U,40384,999,4088,0,-.273E-5,0
ABS-3A,2015-010A,2026-06-06T03:11:26.450592,1.00269324,.00017124,0.0164,62.4102,332.3632,264.6397,0,U,40424,999,4126,0,-.14E-6,0
EUTELSAT 115 WEST B,2015-010B,2026-06-05T16:23:38.817024,1.00272279,.00002139,0.0131,151.0818,113.9340,120.1140,0,U,40425,999,4127,0,-.13E-6,0
EXPRESS-AM7,2015-012A,2026-06-06T03:30:38.755296,1.00272915,.00032927,0.0153,47.1727,34.5835,265.4682,0,U,40505,999,4089,0,.164E-5,0
BEIDOU-3S IGSO-1S,2015-019A,2026-06-05T20:47:47.747040,1.00253453,.00385376,49.2179,295.5981,191.1976,171.8396,0,U,40549,999,4096,0,-.162E-5,0
THOR 7,2015-022A,2026-06-06T03:12:11.378592,1.00271140,.00027357,0.0117,151.6425,286.2285,224.0845,0,U,40613,999,4070,0,.5E-7,0
TURKMENALEM52E/MONACOSAT,2015-023A,2026-06-06T03:27:09.943776,1.00272451,.00031004,0.0439,82.1821,351.0875,285.1021,0,U,40617,999,4073,0,.117E-5,0
DIRECTV 15,2015-026A,2026-06-05T13:24:40.648320,1.00275794,.00001718,0.0173,3.8212,199.1088,149.3472,0,U,40663,999,4034,0,-.91E-6,0
SKY MEXICO-1,2015-026B,2026-06-06T04:20:38.904576,1.00272342,.00022843,0.0115,36.2272,55.5301,149.2126,0,U,40664,999,4034,0,-.221E-5,0
METEOSAT-11 (MSG-4),2015-034A,2026-06-06T03:15:03.604032,1.00276865,.00016621,3.1747,71.1710,4.6300,236.9092,0,U,40732,999,710,0,.76E-6,0
STAR ONE C4,2015-034B,2026-06-05T13:11:02.374656,1.00270300,.00025739,0.0213,351.4199,77.4948,312.8268,0,U,40733,999,3989,0,-.252E-5,0
WGS F7 (USA 263),2015-036A,2026-06-05T15:19:01.794144,1.00269663,.00001788,0.0020,354.4419,252.2590,52.1001,0,U,40746,999,3975,0,.3E-6,0
INTELSAT 34 (IS-34),2015-039A,2026-06-05T20:05:52.789056,1.00272098,.0000367,0.0086,346.6634,38.6986,114.8818,0,U,40874,999,3952,0,-.273E-5,0
EUTELSAT 8 WEST B,2015-039B,2026-06-06T03:10:04.082880,1.00271299,.00038387,0.0638,350.7564,81.6850,221.6324,0,U,40875,999,3954,0,-.53E-6,0
GSAT-6,2015-041A,2026-06-06T03:35:54.106656,1.00271825,.00033789,1.8919,82.7251,348.2588,320.0842,0,U,40880,999,3948,0,-.147E-5,0
INMARSAT 5-F3,2015-042A,2026-06-05T12:31:38.595936,1.00270499,.00004645,0.0175,352.6614,108.5194,160.3182,0,U,40882,999,3945,0,.63E-6,0
MUOS-4,2015-044A,2026-06-06T03:33:39.321792,1.00272272,.00596482,4.3087,42.1708,4.6964,336.1494,0,U,40887,999,3944,0,-.81E-6,0
TJS-1,2015-046A,2026-06-06T05:39:13.597920,1.00273021,.00058557,0.2943,84.9988,353.6425,55.8725,0,U,40892,999,3946,0,-.142E-5,0
EXPRESS-AM8,2015-048A,2026-06-05T15:09:30.462048,1.00271852,.0000156,0.0160,298.9597,150.8380,17.6407,0,U,40895,999,3923,0,-.99E-6,0
BEIDOU-3S IGSO-2S,2015-053A,2026-06-05T18:12:21.694752,1.00262312,.00649479,49.2404,258.9193,192.0437,172.0457,0,U,40938,999,3924,0,-.135E-5,0
SKY MUSTER 1 (NBN1A),2015-054A,2026-06-05T15:15:38.621952,1.00271591,.00018703,0.0226,337.1629,115.1941,170.8590,0,U,40940,999,3914,0,0,0
ARSAT 2,2015-054B,2026-06-06T02:49:16.295808,1.00271032,.000218,0.0420,67.1118,357.5139,151.2449,0,U,40941,999,3919,0,-.212E-5,0
MORELOS 3,2015-056A,2026-06-06T02:40:08.183712,1.00271094,.00017221,3.1783,14.7878,352.0766,174.5898,0,U,40946,999,3917,0,-.31E-6,0
APSTAR-9,2015-059A,2026-06-06T07:18:11.149344,1.00271185,.0002173,0.0154,345.3216,193.6181,327.3516,0,U,40982,999,3901,0,-.253E-5,0
TURKSAT 4B,2015-060A,2026-06-06T03:26:39.992352,1.00275998,.00023623,0.0176,352.1771,83.1101,280.9897,0,U,40984,999,3898,0,.127E-5,0
